{"fetched_at":"2026-07-19T17:31:39.333Z","source":"https://celestrak.org/NORAD/elements/gp.php?NAME=JILIN&FORMAT=JSON","constellation":"jilin-1-early","records":[{"OBJECT_NAME":"JILIN-1","OBJECT_ID":"2015-057D","EPOCH":"2026-07-19T07:15:24.007680","CLASSIFICATION_TYPE":"U","MEAN_MOTION":14.78204831,"ECCENTRICITY":0.0017583,"INCLINATION":97.6522,"RA_OF_ASC_NODE":198.0773,"ARG_OF_PERICENTER":153.9012,"MEAN_ANOMALY":206.309,"EPHEMERIS_TYPE":0,"NORAD_CAT_ID":40961,"ELEMENT_SET_NO":999,"REV_AT_EPOCH":58035,"BSTAR":0.000055565568,"MEAN_MOTION_DOT":0.00000355,"MEAN_MOTION_DDOT":0},{"OBJECT_NAME":"JILIN-1 03","OBJECT_ID":"2017-002B","EPOCH":"2026-07-19T06:41:22.844832","CLASSIFICATION_TYPE":"U","MEAN_MOTION":15.42294361,"ECCENTRICITY":0.0007639,"INCLINATION":97.1955,"RA_OF_ASC_NODE":206.9277,"ARG_OF_PERICENTER":68.623,"MEAN_ANOMALY":291.5833,"EPHEMERIS_TYPE":0,"NORAD_CAT_ID":41914,"ELEMENT_SET_NO":999,"REV_AT_EPOCH":52680,"BSTAR":0.00017351837,"MEAN_MOTION_DOT":0.00007391,"MEAN_MOTION_DDOT":0},{"OBJECT_NAME":"JILIN-1 04","OBJECT_ID":"2017-074A","EPOCH":"2026-07-19T06:07:57.944928","CLASSIFICATION_TYPE":"U","MEAN_MOTION":15.43197635,"ECCENTRICITY":0.00052048,"INCLINATION":97.4876,"RA_OF_ASC_NODE":310.7448,"ARG_OF_PERICENTER":90.0067,"MEAN_ANOMALY":270.1777,"EPHEMERIS_TYPE":0,"NORAD_CAT_ID":43022,"ELEMENT_SET_NO":999,"REV_AT_EPOCH":47921,"BSTAR":0.00018064329,"MEAN_MOTION_DOT":0.00007926,"MEAN_MOTION_DDOT":0},{"OBJECT_NAME":"JILIN-1 05","OBJECT_ID":"2017-074B","EPOCH":"2026-07-19T06:39:54.601056","CLASSIFICATION_TYPE":"U","MEAN_MOTION":15.34321355,"ECCENTRICITY":0.00065777,"INCLINATION":97.488,"RA_OF_ASC_NODE":306.8794,"ARG_OF_PERICENTER":113.5377,"MEAN_ANOMALY":246.6557,"EPHEMERIS_TYPE":0,"NORAD_CAT_ID":43023,"ELEMENT_SET_NO":999,"REV_AT_EPOCH":47892,"BSTAR":0.00012317366,"MEAN_MOTION_DOT":0.00004013,"MEAN_MOTION_DDOT":0},{"OBJECT_NAME":"JILIN-1 06","OBJECT_ID":"2017-074C","EPOCH":"2026-07-19T06:06:20.393280","CLASSIFICATION_TYPE":"U","MEAN_MOTION":15.34023994,"ECCENTRICITY":0.00082793,"INCLINATION":97.4805,"RA_OF_ASC_NODE":303.8218,"ARG_OF_PERICENTER":122.1344,"MEAN_ANOMALY":238.0703,"EPHEMERIS_TYPE":0,"NORAD_CAT_ID":43024,"ELEMENT_SET_NO":999,"REV_AT_EPOCH":47875,"BSTAR":0.00010578893,"MEAN_MOTION_DOT":0.00003403,"MEAN_MOTION_DDOT":0},{"OBJECT_NAME":"JILIN-1 07","OBJECT_ID":"2018-008E","EPOCH":"2026-07-19T07:07:13.199520","CLASSIFICATION_TYPE":"U","MEAN_MOTION":15.3520313,"ECCENTRICITY":0.0006385,"INCLINATION":97.1768,"RA_OF_ASC_NODE":219.3786,"ARG_OF_PERICENTER":309.9326,"MEAN_ANOMALY":50.1357,"EPHEMERIS_TYPE":0,"NORAD_CAT_ID":43159,"ELEMENT_SET_NO":999,"REV_AT_EPOCH":46992,"BSTAR":0.00013395115,"MEAN_MOTION_DOT":0.00004502,"MEAN_MOTION_DDOT":0},{"OBJECT_NAME":"JILIN-1 08","OBJECT_ID":"2018-008F","EPOCH":"2026-07-19T06:06:36.436032","CLASSIFICATION_TYPE":"U","MEAN_MOTION":15.34036403,"ECCENTRICITY":0.00048285,"INCLINATION":97.1805,"RA_OF_ASC_NODE":218.6173,"ARG_OF_PERICENTER":335.8899,"MEAN_ANOMALY":24.2118,"EPHEMERIS_TYPE":0,"NORAD_CAT_ID":43160,"ELEMENT_SET_NO":999,"REV_AT_EPOCH":46986,"BSTAR":0.00009684788,"MEAN_MOTION_DOT":0.00003113,"MEAN_MOTION_DDOT":0},{"OBJECT_NAME":"JILIN-1 09","OBJECT_ID":"2019-005B","EPOCH":"2026-07-19T07:00:36.171648","CLASSIFICATION_TYPE":"U","MEAN_MOTION":15.2076002,"ECCENTRICITY":0.00019555,"INCLINATION":97.4743,"RA_OF_ASC_NODE":294.9868,"ARG_OF_PERICENTER":27.338,"MEAN_ANOMALY":332.7958,"EPHEMERIS_TYPE":0,"NORAD_CAT_ID":43943,"ELEMENT_SET_NO":999,"REV_AT_EPOCH":41402,"BSTAR":0.0001028275,"MEAN_MOTION_DOT":0.00002194,"MEAN_MOTION_DDOT":0},{"OBJECT_NAME":"JILIN-1 10","OBJECT_ID":"2019-005E","EPOCH":"2026-07-19T06:13:52.749984","CLASSIFICATION_TYPE":"U","MEAN_MOTION":15.26032123,"ECCENTRICITY":0.00089699,"INCLINATION":97.4794,"RA_OF_ASC_NODE":299.0727,"ARG_OF_PERICENTER":156.6723,"MEAN_ANOMALY":203.4924,"EPHEMERIS_TYPE":0,"NORAD_CAT_ID":43946,"ELEMENT_SET_NO":999,"REV_AT_EPOCH":41420,"BSTAR":0.00012161226,"MEAN_MOTION_DOT":0.00003058,"MEAN_MOTION_DDOT":0}]}
