JILIN-1                 
1 40961U 15057D   26200.30236120  .00000355  00000+0  55566-4 0  9998
2 40961  97.6522 198.0773 0017583 153.9012 206.3090 14.78204831580352
JILIN-1 03              
1 41914U 17002B   26200.27873663  .00007391  00000+0  17352-3 0  9991
2 41914  97.1955 206.9277 0007639  68.6230 291.5833 15.42294361526809
JILIN-1 04              
1 43022U 17074A   26200.25553177  .00007926  00000+0  18064-3 0  9990
2 43022  97.4876 310.7448 0005204  90.0067 270.1777 15.43197635479212
JILIN-1 05              
1 43023U 17074B   26200.27771529  .00004013  00000+0  12317-3 0  9995
2 43023  97.4880 306.8794 0006577 113.5377 246.6557 15.34321355478926
JILIN-1 06              
1 43024U 17074C   26200.25440270  .00003403  00000+0  10579-3 0  9990
2 43024  97.4805 303.8218 0008279 122.1344 238.0703 15.34023994478750
JILIN-1 07              
1 43159U 18008E   26200.29668055  .00004502  00000+0  13395-3 0  9994
2 43159  97.1768 219.3786 0006385 309.9326  50.1357 15.35203130469926
JILIN-1 08              
1 43160U 18008F   26200.25458838  .00003113  00000+0  96848-4 0  9990
2 43160  97.1805 218.6173 0004828 335.8899  24.2118 15.34036403469861
JILIN-1 09              
1 43943U 19005B   26200.29208532  .00002194  00000+0  10283-3 0  9991
2 43943  97.4743 294.9868 0001955  27.3380 332.7958 15.20760020414029
JILIN-1 10              
1 43946U 19005E   26200.25963831  .00003058  00000+0  12161-3 0  9997
2 43946  97.4794 299.0727 0008969 156.6723 203.4924 15.26032123414206
